[{"OBJECT_NAME":"STARLINK-34356","OBJECT_ID":"2025-123N","EPOCH":"2026-03-09T18:18:33.035040","MEAN_MOTION":14.98322042,"ECCENTRICITY":0.00031271,"INCLINATION":70.0028,"RA_OF_ASC_NODE":194.1022,"ARG_OF_PERICENTER":278.706,"MEAN_ANOMALY":81.3745,"EPHEMERIS_TYPE":0,"CLASSIFICATION_TYPE":"U","NORAD_CAT_ID":64303,"ELEMENT_SET_NO":999,"REV_AT_EPOCH":4163,"BSTAR":0.0013431503,"MEAN_MOTION_DOT":0.00015967,"MEAN_MOTION_DDOT":0},{"OBJECT_NAME":"UNKNOWN","OBJECT_ID":"","EPOCH":"2026-03-08T03:02:18.381696","MEAN_MOTION":13.28400509,"ECCENTRICITY":0.0771408,"INCLINATION":65.841,"RA_OF_ASC_NODE":337.3842,"ARG_OF_PERICENTER":230.1713,"MEAN_ANOMALY":122.8971,"EPHEMERIS_TYPE":0,"CLASSIFICATION_TYPE":"U","NORAD_CAT_ID":82912,"ELEMENT_SET_NO":999,"REV_AT_EPOCH":59066,"BSTAR":0.001101,"MEAN_MOTION_DOT":2.628e-5,"MEAN_MOTION_DDOT":0}]
